{"type":"FeatureCollection","features":[{"type":"Feature","properties":{"Name":"Bear"},"geometry":{"type":"MultiPolygon","coordinates":[[[[-110.86376,40.72333],[-110.8801,40.72843],[-110.88706,40.73016],[-110.8971,40.73813],[-110.90471,40.74095],[-110.90835,40.74383],[-110.91169,40.75546],[-110.91506,40.76045],[-110.91685,40.77307],[-110.91987,40.78206],[-110.92486,40.78707],[-110.93535,40.7923],[-110.94529,40.79805],[-110.94738,40.7997],[-110.95081,40.80509],[-110.95064,40.81124],[-110.95076,40.81581],[-110.96103,40.82092],[-110.96698,40.82436],[-110.97234,40.82859],[-110.98119,40.84246],[-110.9901,40.84648],[-110.99698,40.84817],[-111.00731,40.85114],[-111.01119,40.85462],[-111.00846,40.86068],[-111.00408,40.86889],[-111.00291,40.87161],[-110.99933,40.8779],[-110.99679,40.88278],[-110.99708,40.89323],[-110.99695,40.89789],[-110.99301,40.90368],[-110.98117,40.91231],[-110.97657,40.91401],[-110.96446,40.9158],[-110.9541,40.91848],[-110.95026,40.92447],[-110.95065,40.93925],[-110.96255,40.95494],[-110.97369,40.96575],[-110.98031,40.97341],[-110.98665,40.9805],[-110.99911,40.99258],[-111.00171,40.99863],[-111.00292,41.00132],[-111.00454,41.0051],[-111.00393,41.02779],[-111.00661,41.03768],[-111.01186,41.04539],[-111.02021,41.05008],[-111.03048,41.04992],[-111.04216,41.04455],[-111.04813,41.04186],[-111.05287,41.03914],[-111.0581,41.0362],[-111.0799,41.03083],[-111.10283,41.03116],[-111.11205,41.03398],[-111.11589,41.04132],[-111.1135,41.05198],[-111.11124,41.06974],[-111.11003,41.07513],[-111.10888,41.08055],[-111.10002,41.09778],[-111.09415,41.10512],[-111.08865,41.11028],[-111.08374,41.11498],[-111.08038,41.12023],[-111.07795,41.1238],[-111.0701,41.13696],[-111.06518,41.14847],[-111.0675,41.17564],[-111.07276,41.18541],[-111.08283,41.1891],[-111.09288,41.193],[-111.09603,41.19789],[-111.10346,41.20326],[-111.10801,41.20485],[-111.11263,41.20304],[-111.11981,41.20215],[-111.12433,41.19859],[-111.13469,41.19567],[-111.14587,41.18685],[-111.14959,41.185],[-111.15314,41.18318],[-111.15673,41.18139],[-111.16397,41.17723],[-111.18175,41.17234],[-111.18797,41.17042],[-111.19482,41.1669],[-111.20318,41.1633],[-111.2091,41.15967],[-111.21315,41.15765],[-111.22018,41.1512],[-111.22461,41.14797],[-111.23122,41.14273],[-111.23355,41.14162],[-111.2433,41.14754],[-111.24856,41.14882],[-111.25665,41.14867],[-111.2508,41.15418],[-111.24589,41.15889],[-111.23744,41.17215],[-111.23783,41.18493],[-111.23544,41.19205],[-111.23429,41.19567],[-111.23301,41.19947],[-111.23071,41.20287],[-111.22955,41.20469],[-111.22477,41.21098],[-111.22361,41.21291],[-111.23086,41.22547],[-111.23834,41.22915],[-111.25468,41.22886],[-111.26263,41.22897],[-111.2723,41.23388],[-111.27621,41.24422],[-111.27805,41.24824],[-111.27989,41.25795],[-111.27983,41.26068],[-111.27731,41.26818],[-111.27138,41.27412],[-111.26045,41.27956],[-111.25595,41.28311],[-111.25225,41.2889],[-111.25261,41.30027],[-111.25838,41.30443],[-111.2729,41.30546],[-111.2789,41.30661],[-111.28964,41.31355],[-111.29206,41.31442],[-111.29448,41.31719],[-111.2943,41.32508],[-111.2981,41.32882],[-111.30095,41.33208],[-111.30529,41.33421],[-111.31854,41.34325],[-111.32327,41.34497],[-111.32586,41.34596],[-111.32568,41.35398],[-111.32735,41.3564],[-111.33529,41.35754],[-111.33907,41.3585],[-111.34361,41.36204],[-111.36389,41.36297],[-111.37735,41.37195],[-111.38585,41.37179],[-111.39619,41.36774],[-111.40799,41.36049],[-111.416,41.35899],[-111.42255,41.35998],[-111.42976,41.36083],[-111.44105,41.3627],[-111.44811,41.36449],[-111.45476,41.36704],[-111.46789,41.37578],[-111.47615,41.38218],[-111.4792,41.38913],[-111.47778,41.39782],[-111.47788,41.40046],[-111.48411,41.40492],[-111.49551,41.40902],[-111.49992,41.41124],[-111.51009,41.4219],[-111.51735,41.41815],[-111.52118,41.41719],[-111.5282,41.41357],[-111.53061,41.41267],[-111.53618,41.40979],[-111.54635,41.4099],[-111.5545,41.4162],[-111.55875,41.41924],[-111.57023,41.42057],[-111.57251,41.41876],[-111.57645,41.4173],[-111.6138,41.41514],[-111.62211,41.41294],[-111.63097,41.40044],[-111.63348,41.39761],[-111.64316,41.39771],[-111.65576,41.41087],[-111.663,41.42343],[-111.66848,41.42734],[-111.67937,41.42711],[-111.68625,41.42354],[-111.69088,41.42263],[-111.70066,41.42888],[-111.70433,41.42974],[-111.70673,41.42594],[-111.70652,41.42046],[-111.70409,41.41354],[-111.70285,41.40747],[-111.70973,41.39877],[-111.72092,41.38884],[-111.72835,41.37705],[-111.73601,41.37419],[-111.74463,41.37077],[-111.75172,41.36911],[-111.76265,41.37184],[-111.76993,41.37461],[-111.78343,41.38218],[-111.79311,41.39183],[-111.80564,41.39358],[-111.81869,41.39205],[-111.829,41.39109],[-111.84143,41.39371],[-111.84907,41.39505],[-111.85973,41.39908],[-111.86307,41.40165],[-111.87497,41.40965],[-111.89444,41.40495],[-111.90302,41.40501],[-111.91124,41.40705],[-111.92205,41.41393],[-111.92911,41.41733],[-111.93633,41.4218],[-111.95159,41.42961],[-111.95421,41.43064],[-111.95553,41.42522],[-111.95813,41.42425],[-111.96936,41.42433],[-111.97991,41.42695],[-111.98894,41.43035],[-111.99974,41.43115],[-112.00102,41.42474],[-112.0082,41.42479],[-112.01774,41.42379],[-112.02806,41.42281],[-112.0405,41.4254],[-112.05026,41.4262],[-112.06754,41.42074],[-112.06975,41.42017],[-112.07033,41.42064],[-112.0726,41.42218],[-112.07878,41.42836],[-112.08009,41.43166],[-112.07423,41.43948],[-112.07315,41.44361],[-112.08917,41.44632],[-112.09588,41.44548],[-112.09232,41.44306],[-112.09106,41.44106],[-112.0974,41.43873],[-112.10535,41.44074],[-112.10667,41.44472],[-112.11179,41.44452],[-112.11843,41.43898],[-112.12362,41.43909],[-112.12694,41.44171],[-112.13059,41.44254],[-112.13424,41.44438],[-112.14137,41.44409],[-112.15341,41.44433],[-112.16081,41.44309],[-112.16402,41.44041],[-112.17124,41.43947],[-112.1749,41.43641],[-112.18016,41.43774],[-112.18991,41.43505],[-112.20016,41.43377],[-112.20715,41.43553],[-112.21184,41.43534],[-112.21309,41.43994],[-112.21836,41.44351],[-112.22261,41.44334],[-112.22515,41.44431],[-112.2336,41.44599],[-112.23656,41.44713],[-112.24566,41.44676],[-112.24824,41.44031],[-112.25399,41.43679],[-112.25779,41.43979],[-112.25749,41.44869],[-112.25054,41.45751],[-112.24708,41.46209],[-112.24196,41.46697],[-112.22333,41.47492],[-112.21981,41.47679],[-112.21339,41.4784],[-112.21143,41.47685],[-112.20991,41.47582],[-112.19687,41.47801],[-112.19219,41.48362],[-112.19374,41.48982],[-112.19366,41.4922],[-112.18033,41.4934],[-112.17823,41.49534],[-112.18173,41.49771],[-112.18741,41.50413],[-112.18923,41.50954],[-112.19494,41.5156],[-112.20397,41.51658],[-112.21018,41.51897],[-112.21813,41.51731],[-112.22433,41.51638],[-112.23136,41.51991],[-112.23862,41.52069],[-112.2456,41.52199],[-112.24345,41.52515],[-112.24356,41.52665],[-112.26465,41.52579],[-112.26993,41.52298],[-112.27207,41.51763],[-112.27364,41.51408],[-112.28387,41.51292],[-112.28818,41.513],[-112.29052,41.5129],[-112.30531,41.5068],[-112.31817,41.50481],[-112.3265,41.50137],[-112.34102,41.49911],[-112.34236,41.49755],[-112.33961,41.48839],[-112.33974,41.48435],[-112.34757,41.48042],[-112.36443,41.47618],[-112.37855,41.46624],[-112.39189,41.45863],[-112.41251,41.4444],[-112.4152,41.44888],[-112.4169,41.454],[-112.41287,41.46335],[-112.4024,41.47829],[-112.39169,41.49691],[-112.3867,41.50751],[-112.38291,41.52156],[-112.38164,41.54042],[-112.38476,41.57117],[-112.39351,41.59704],[-112.39134,41.60568],[-112.38643,41.61521],[-112.37526,41.62902],[-112.3741,41.63717],[-112.37255,41.64206],[-112.37671,41.64703],[-112.37811,41.65196],[-112.37804,41.6631],[-112.3727,41.67421],[-112.36301,41.68142],[-112.35975,41.68405],[-112.347,41.68537],[-112.3426,41.68713],[-112.34292,41.69383],[-112.34289,41.69932],[-112.34448,41.70761],[-112.34444,41.71331],[-112.34171,41.7196],[-112.33998,41.72867],[-112.34568,41.73264],[-112.34743,41.74107],[-112.34981,41.74913],[-112.34532,41.75782],[-112.34556,41.76293],[-112.34985,41.76893],[-112.3529,41.77345],[-112.3566,41.77863],[-112.3579,41.78152],[-112.35076,41.78514],[-112.3496,41.78608],[-112.34839,41.78697],[-112.34605,41.78873],[-112.35975,41.79986],[-112.35968,41.81207],[-112.35994,41.81747],[-112.35992,41.82017],[-112.36017,41.82533],[-112.35765,41.83113],[-112.35792,41.83663],[-112.36585,41.84215],[-112.37019,41.84542],[-112.37015,41.85148],[-112.37149,41.85335],[-112.37273,41.85605],[-112.374,41.85782],[-112.37522,41.85963],[-112.38133,41.86066],[-112.38128,41.86894],[-112.39292,41.87517],[-112.39513,41.88149],[-112.39509,41.88839],[-112.38858,41.89321],[-112.38594,41.89534],[-112.38469,41.90965],[-112.38126,41.91628],[-112.38017,41.92081],[-112.37898,41.92356],[-112.36859,41.92622],[-112.36596,41.93273],[-112.37362,41.93539],[-112.3769,41.93803],[-112.36844,41.94122],[-112.36879,41.94841],[-112.36877,41.95251],[-112.36126,41.95632],[-112.35926,41.95808],[-112.36407,41.96142],[-112.36669,41.9643],[-112.37033,41.96683],[-112.37337,41.96911],[-112.3716,41.97319],[-112.37185,41.97835],[-112.36964,41.98343],[-112.36604,41.99303],[-112.36477,41.99594],[-112.36011,41.99939],[-112.35901,42.00315],[-112.36176,42.00885],[-112.36574,42.01438],[-112.37736,42.02438],[-112.38053,42.03642],[-112.38765,42.04319],[-112.38964,42.04613],[-112.38778,42.05039],[-112.38666,42.0532],[-112.39161,42.05845],[-112.39799,42.06653],[-112.40507,42.06634],[-112.41008,42.06635],[-112.41615,42.07091],[-112.41913,42.07737],[-112.41675,42.08479],[-112.41442,42.09891],[-112.41007,42.10729],[-112.40851,42.11203],[-112.41475,42.11498],[-112.44274,42.11919],[-112.44521,42.12104],[-112.44516,42.13163],[-112.44867,42.13885],[-112.45059,42.15429],[-112.45441,42.16215],[-112.4544,42.16324],[-112.45185,42.17122],[-112.45251,42.18432],[-112.45667,42.18872],[-112.47183,42.19486],[-112.47367,42.20245],[-112.48273,42.21019],[-112.48475,42.21851],[-112.4875,42.22331],[-112.49522,42.22863],[-112.50324,42.23086],[-112.51182,42.23349],[-112.51602,42.23337],[-112.51918,42.23338],[-112.52353,42.23662],[-112.52535,42.2441],[-112.52665,42.24677],[-112.52793,42.25037],[-112.52925,42.25394],[-112.53076,42.26441],[-112.54037,42.26707],[-112.5453,42.27429],[-112.55047,42.27887],[-112.5517,42.28077],[-112.54668,42.28252],[-112.53718,42.28085],[-112.53244,42.28003],[-112.53146,42.29535],[-112.53029,42.29805],[-112.52904,42.30448],[-112.5232,42.31501],[-112.52122,42.32348],[-112.52872,42.33229],[-112.53224,42.33744],[-112.53559,42.34077],[-112.53166,42.34139],[-112.52263,42.34611],[-112.511,42.35049],[-112.50861,42.35409],[-112.51243,42.35603],[-112.52437,42.36013],[-112.5295,42.36553],[-112.52838,42.36834],[-112.52613,42.37351],[-112.52408,42.38029],[-112.51936,42.38564],[-112.51682,42.39281],[-112.51337,42.39801],[-112.51095,42.40483],[-112.50661,42.41134],[-112.50486,42.42032],[-112.50183,42.42633],[-112.496,42.43681],[-112.49731,42.4417],[-112.49985,42.45013],[-112.5013,42.45605],[-112.50394,42.46481],[-112.50183,42.47215],[-112.49571,42.47594],[-112.48882,42.47986],[-112.48676,42.48458],[-112.48519,42.49409],[-112.48178,42.50342],[-112.48177,42.50727],[-112.48358,42.51649],[-112.48201,42.52762],[-112.46637,42.53476],[-112.46211,42.53959],[-112.46074,42.55216],[-112.45425,42.55732],[-112.44578,42.56069],[-112.435,42.55853],[-112.41631,42.55904],[-112.41359,42.55718],[-112.41098,42.54904],[-112.40862,42.54268],[-112.41267,42.52674],[-112.40794,42.5216],[-112.40203,42.51537],[-112.39785,42.50081],[-112.39457,42.49601],[-112.38402,42.48725],[-112.37839,42.48181],[-112.36456,42.48219],[-112.3624,42.467],[-112.35817,42.4608],[-112.34897,42.45248],[-112.33847,42.44863],[-112.32972,42.45007],[-112.31848,42.45136],[-112.31415,42.45454],[-112.31012,42.45925],[-112.30569,42.45937],[-112.30074,42.45766],[-112.29699,42.45246],[-112.29456,42.44282],[-112.29198,42.39898],[-112.29514,42.38869],[-112.30576,42.37946],[-112.30865,42.37286],[-112.31083,42.36761],[-112.31763,42.35881],[-112.32995,42.34809],[-112.33,42.34057],[-112.32803,42.32885],[-112.32022,42.32598],[-112.30502,42.32847],[-112.29274,42.32105],[-112.28465,42.3191],[-112.2777,42.32078],[-112.27132,42.32825],[-112.26527,42.33129],[-112.2564,42.34045],[-112.24688,42.34343],[-112.23961,42.3449],[-112.22796,42.34672],[-112.21182,42.34959],[-112.20096,42.34852],[-112.18779,42.33939],[-112.17805,42.32963],[-112.16285,42.31193],[-112.15954,42.30019],[-112.15519,42.29542],[-112.13753,42.29417],[-112.13124,42.29198],[-112.12659,42.28875],[-112.11691,42.27613],[-112.1088,42.27258],[-112.10056,42.27058],[-112.09681,42.273],[-112.09676,42.27759],[-112.10026,42.2895],[-112.0949,42.29574],[-112.08518,42.30136],[-112.07311,42.30585],[-112.07305,42.31118],[-112.07999,42.31883],[-112.08799,42.32645],[-112.08617,42.32943],[-112.07775,42.33275],[-112.06442,42.33426],[-112.06148,42.33757],[-112.05919,42.34119],[-112.04857,42.3465],[-112.03911,42.35598],[-112.03387,42.36424],[-112.02322,42.37202],[-112.0232,42.37395],[-112.02361,42.38332],[-112.02001,42.39188],[-112.00807,42.38841],[-112.0004,42.38859],[-111.99802,42.38679],[-111.9868,42.3879],[-111.98217,42.38961],[-111.97756,42.39143],[-111.97254,42.39268],[-111.97251,42.39556],[-111.97265,42.39877],[-111.96899,42.40143],[-111.96681,42.40839],[-111.95597,42.41819],[-111.9559,42.42362],[-111.95611,42.42848],[-111.95367,42.4313],[-111.95022,42.43516],[-111.95376,42.44293],[-111.96371,42.44898],[-111.97222,42.45301],[-111.97084,42.45485],[-111.96574,42.46056],[-111.96753,42.4645],[-111.9688,42.46628],[-111.97127,42.47343],[-111.97503,42.47743],[-111.96874,42.48363],[-111.95354,42.48925],[-111.95185,42.49437],[-111.95253,42.51029],[-111.95121,42.51429],[-111.95143,42.51951],[-111.94641,42.52208],[-111.92829,42.52343],[-111.9295,42.52516],[-111.93599,42.53097],[-111.93583,42.54311],[-111.94321,42.54626],[-111.94012,42.54732],[-111.92534,42.54521],[-111.92161,42.55106],[-111.91486,42.5495],[-111.90322,42.54518],[-111.89585,42.54652],[-111.89405,42.55636],[-111.89695,42.57062],[-111.8998,42.57659],[-111.89634,42.57944],[-111.89382,42.57949],[-111.88415,42.57713],[-111.87771,42.57873],[-111.86861,42.58228],[-111.86317,42.58363],[-111.86031,42.59036],[-111.85614,42.59189],[-111.84839,42.59492],[-111.83615,42.58892],[-111.83087,42.5911],[-111.82203,42.5995],[-111.81065,42.60532],[-111.80516,42.60803],[-111.79834,42.61152],[-111.78117,42.61904],[-111.75507,42.63286],[-111.74823,42.63635],[-111.73153,42.63747],[-111.72996,42.64096],[-111.72881,42.65055],[-111.71766,42.65223],[-111.71323,42.6626],[-111.71085,42.66446],[-111.70431,42.66738],[-111.69753,42.67268],[-111.68287,42.67488],[-111.67668,42.67641],[-111.66579,42.68369],[-111.65753,42.68881],[-111.655,42.69251],[-111.65864,42.70174],[-111.65991,42.70442],[-111.66221,42.70951],[-111.66363,42.71162],[-111.66981,42.71697],[-111.67494,42.72322],[-111.68704,42.72819],[-111.69709,42.73864],[-111.71264,42.75171],[-111.71486,42.75938],[-111.71312,42.76626],[-111.71191,42.76895],[-111.70745,42.77936],[-111.70089,42.78829],[-111.68777,42.80241],[-111.68298,42.80426],[-111.67203,42.80564],[-111.67191,42.81284],[-111.67459,42.82211],[-111.66854,42.82596],[-111.66273,42.82739],[-111.65999,42.83138],[-111.65654,42.83671],[-111.65407,42.83863],[-111.64561,42.83881],[-111.64055,42.83528],[-111.6392,42.83063],[-111.63732,42.81996],[-111.63424,42.81537],[-111.6305,42.81445],[-111.62068,42.81362],[-111.61198,42.81038],[-111.60219,42.80903],[-111.6024,42.7977],[-111.59505,42.78984],[-111.58856,42.77957],[-111.587,42.77392],[-111.5788,42.76169],[-111.57018,42.75847],[-111.56462,42.76049],[-111.55638,42.76453],[-111.55291,42.76722],[-111.54569,42.77076],[-111.53326,42.77893],[-111.52133,42.778],[-111.51862,42.7723],[-111.51881,42.76288],[-111.51743,42.75999],[-111.51475,42.74827],[-111.51003,42.74121],[-111.50755,42.73772],[-111.50579,42.73128],[-111.49886,42.72326],[-111.49466,42.71811],[-111.48906,42.71614],[-111.48731,42.71352],[-111.47992,42.71222],[-111.47313,42.70609],[-111.47305,42.704],[-111.47319,42.69739],[-111.47075,42.69554],[-111.46571,42.69365],[-111.45355,42.68936],[-111.45117,42.68599],[-111.45081,42.67573],[-111.45463,42.6748],[-111.45697,42.67299],[-111.4606,42.67038],[-111.46064,42.66854],[-111.45799,42.66559],[-111.45383,42.66267],[-111.45145,42.65394],[-111.44405,42.64665],[-111.43046,42.64474],[-111.42749,42.64248],[-111.41806,42.64026],[-111.40947,42.63615],[-111.40785,42.63251],[-111.40426,42.62742],[-111.40292,42.62442],[-111.39803,42.61749],[-111.39806,42.6159],[-111.39671,42.60612],[-111.38887,42.60914],[-111.38111,42.61113],[-111.37714,42.60867],[-111.37237,42.60395],[-111.36669,42.60123],[-111.36411,42.59168],[-111.36014,42.58864],[-111.35641,42.58871],[-111.35277,42.5869],[-111.3357,42.58593],[-111.33687,42.58155],[-111.34083,42.57372],[-111.33749,42.57116],[-111.33374,42.56853],[-111.33188,42.5671],[-111.32704,42.56538],[-111.31899,42.56181],[-111.29762,42.56095],[-111.28818,42.55739],[-111.28314,42.5565],[-111.27708,42.55536],[-111.27146,42.56401],[-111.26314,42.57167],[-111.25946,42.58297],[-111.25527,42.58718],[-111.24917,42.59258],[-111.2433,42.6016],[-111.2407,42.60164],[-111.24059,42.59801],[-111.24071,42.59305],[-111.2358,42.5913],[-111.23576,42.58992],[-111.23586,42.58551],[-111.23115,42.58191],[-111.22718,42.58049],[-111.22729,42.57598],[-111.22011,42.57343],[-111.22574,42.53416],[-111.23052,42.52891],[-111.23182,42.51145],[-111.24632,42.50109],[-111.24643,42.49637],[-111.24393,42.49173],[-111.24268,42.48995],[-111.24063,42.48684],[-111.23448,42.47922],[-111.22668,42.47776],[-111.2159,42.48009],[-111.20615,42.48099],[-111.19889,42.48238],[-111.19882,42.48011],[-111.19891,42.47652],[-111.19178,42.47822],[-111.18505,42.4808],[-111.18068,42.47745],[-111.17694,42.47834],[-111.17132,42.47977],[-111.16936,42.47387],[-111.1672,42.47565],[-111.16474,42.47943],[-111.15901,42.48352],[-111.1572,42.49044],[-111.1492,42.48741],[-111.13808,42.48627],[-111.12482,42.48293],[-111.11218,42.48701],[-111.10515,42.49018],[-111.08084,42.49196],[-111.07573,42.49293],[-111.06869,42.49283],[-111.06749,42.49739],[-111.06019,42.50258],[-111.06143,42.5056],[-111.06527,42.50832],[-111.04785,42.51182],[-111.04084,42.51449],[-111.03126,42.51121],[-111.0272,42.50809],[-111.02,42.50551],[-111.01266,42.50139],[-111.00158,42.50299],[-110.99934,42.50641],[-110.98109,42.50788],[-110.981,42.51091],[-110.98117,42.51695],[-110.97981,42.52087],[-110.97987,42.52306],[-110.97983,42.52441],[-110.97989,42.52667],[-110.97978,42.53062],[-110.98137,42.53406],[-110.97629,42.53797],[-110.97045,42.53788],[-110.96261,42.53901],[-110.95978,42.54331],[-110.95368,42.54206],[-110.94329,42.53702],[-110.93748,42.5341],[-110.92677,42.53216],[-110.92481,42.52319],[-110.9164,42.52167],[-110.91657,42.51573],[-110.90608,42.50425],[-110.90325,42.49563],[-110.90198,42.49465],[-110.89588,42.49106],[-110.88979,42.48741],[-110.88288,42.48751],[-110.87701,42.48609],[-110.86865,42.48396],[-110.85584,42.48703],[-110.85571,42.49145],[-110.8558,42.49505],[-110.84713,42.49978],[-110.83735,42.50814],[-110.83746,42.51262],[-110.8267,42.52244],[-110.82496,42.53408],[-110.81665,42.53507],[-110.81075,42.53836],[-110.79352,42.54041],[-110.79342,42.5439],[-110.79561,42.54868],[-110.78795,42.55797],[-110.78543,42.56366],[-110.77638,42.56653],[-110.77011,42.56835],[-110.76296,42.57191],[-110.75075,42.57686],[-110.75254,42.58715],[-110.75493,42.59081],[-110.76039,42.59871],[-110.75904,42.60299],[-110.75325,42.60517],[-110.74738,42.60525],[-110.74214,42.59931],[-110.73564,42.59217],[-110.73001,42.58353],[-110.72877,42.58174],[-110.7276,42.57632],[-110.72553,42.56717],[-110.7235,42.54632],[-110.72166,42.54208],[-110.72043,42.54029],[-110.71615,42.53372],[-110.71084,42.52719],[-110.70918,42.51947],[-110.70219,42.51178],[-110.70301,42.48628],[-110.69935,42.48064],[-110.69168,42.48256],[-110.68807,42.48029],[-110.68664,42.47717],[-110.68497,42.46263],[-110.67958,42.45649],[-110.67351,42.45214],[-110.67099,42.4456],[-110.66803,42.43645],[-110.65758,42.42386],[-110.64879,42.42172],[-110.64444,42.4104],[-110.6431,42.39868],[-110.63851,42.38516],[-110.63735,42.38064],[-110.63376,42.37129],[-110.63532,42.36478],[-110.63864,42.36353],[-110.64947,42.36589],[-110.65775,42.36275],[-110.6666,42.36093],[-110.67076,42.35886],[-110.68414,42.35461],[-110.68945,42.35471],[-110.69578,42.35381],[-110.70775,42.34315],[-110.71864,42.33738],[-110.73681,42.33049],[-110.74276,42.33182],[-110.7533,42.34001],[-110.76127,42.34404],[-110.77037,42.34276],[-110.78886,42.32965],[-110.79419,42.31997],[-110.79574,42.31111],[-110.79535,42.29507],[-110.79796,42.28827],[-110.80122,42.28125],[-110.80652,42.26708],[-110.80537,42.25496],[-110.8041,42.24938],[-110.80423,42.24519],[-110.80276,42.24087],[-110.80319,42.2266],[-110.80297,42.21759],[-110.80332,42.20633],[-110.80296,42.19158],[-110.80451,42.18691],[-110.81285,42.17492],[-110.81001,42.17372],[-110.80323,42.17126],[-110.80156,42.1676],[-110.80424,42.16183],[-110.79646,42.15789],[-110.79117,42.15585],[-110.78147,42.15349],[-110.78266,42.15135],[-110.79597,42.14045],[-110.79605,42.13786],[-110.79224,42.13083],[-110.79367,42.11714],[-110.79614,42.11085],[-110.79491,42.10816],[-110.79371,42.10355],[-110.79062,42.09905],[-110.79374,42.09553],[-110.80101,42.08842],[-110.80127,42.08004],[-110.79925,42.07381],[-110.79386,42.06597],[-110.79378,42.06266],[-110.7941,42.05231],[-110.79388,42.04338],[-110.79512,42.04149],[-110.79876,42.03625],[-110.79762,42.02168],[-110.79045,42.01123],[-110.79033,42.00636],[-110.79058,41.9981],[-110.78847,41.98551],[-110.79172,41.97148],[-110.79005,41.96333],[-110.78721,41.95895],[-110.78228,41.95329],[-110.77725,41.95073],[-110.75661,41.94217],[-110.7472,41.93694],[-110.7328,41.92698],[-110.72194,41.92247],[-110.70864,41.91367],[-110.69473,41.91063],[-110.67999,41.91081],[-110.67555,41.90641],[-110.6738,41.90252],[-110.67113,41.89422],[-110.66469,41.88917],[-110.66065,41.8876],[-110.6477,41.88285],[-110.63119,41.86922],[-110.62518,41.86253],[-110.61645,41.84972],[-110.6139,41.84215],[-110.61541,41.83634],[-110.62117,41.82983],[-110.62619,41.82434],[-110.63572,41.81311],[-110.63458,41.77604],[-110.63224,41.77057],[-110.62534,41.75767],[-110.62504,41.74339],[-110.62874,41.73773],[-110.63192,41.73527],[-110.64286,41.72747],[-110.65553,41.71693],[-110.66378,41.70829],[-110.67866,41.6953],[-110.69831,41.68302],[-110.71071,41.67929],[-110.72212,41.67786],[-110.74286,41.67981],[-110.75543,41.68384],[-110.76638,41.6881],[-110.77407,41.69009],[-110.78518,41.69246],[-110.80461,41.69748],[-110.8187,41.70093],[-110.83671,41.70644],[-110.84854,41.70664],[-110.86446,41.70311],[-110.89013,41.68468],[-110.90803,41.66515],[-110.91618,41.65759],[-110.92488,41.63983],[-110.92371,41.63003],[-110.92151,41.62519],[-110.91893,41.61761],[-110.91884,41.61406],[-110.92128,41.60514],[-110.92157,41.59512],[-110.91963,41.58613],[-110.91216,41.57455],[-110.90421,41.56832],[-110.89676,41.56416],[-110.89142,41.55636],[-110.89416,41.55167],[-110.90402,41.54078],[-110.90702,41.53202],[-110.90521,41.52193],[-110.90014,41.51406],[-110.89216,41.5078],[-110.88085,41.50221],[-110.87416,41.49557],[-110.87051,41.48602],[-110.87343,41.4815],[-110.87475,41.48047],[-110.88252,41.47585],[-110.88699,41.47032],[-110.88655,41.45301],[-110.88684,41.44286],[-110.88563,41.43724],[-110.88326,41.42668],[-110.88548,41.41942],[-110.89243,41.414],[-110.90361,41.40849],[-110.90378,41.4024],[-110.90128,41.39851],[-110.89175,41.3879],[-110.89049,41.38322],[-110.88888,41.37571],[-110.88591,41.37338],[-110.88136,41.37161],[-110.87427,41.36977],[-110.86541,41.36963],[-110.86183,41.36968],[-110.85525,41.36957],[-110.84546,41.3697],[-110.83706,41.36815],[-110.83133,41.36244],[-110.82831,41.35773],[-110.82121,41.3498],[-110.82005,41.34798],[-110.81772,41.34456],[-110.81748,41.33466],[-110.83204,41.32278],[-110.84878,41.3092],[-110.84902,41.30107],[-110.84719,41.29395],[-110.84203,41.28799],[-110.83825,41.28501],[-110.83455,41.28405],[-110.81155,41.28032],[-110.80511,41.27428],[-110.80353,41.266],[-110.80217,41.25851],[-110.79746,41.24666],[-110.79292,41.22365],[-110.79135,41.21377],[-110.78716,41.20393],[-110.78294,41.2006],[-110.77869,41.1975],[-110.7725,41.18956],[-110.76511,41.18576],[-110.75731,41.18678],[-110.74533,41.1893],[-110.73271,41.19288],[-110.72647,41.19152],[-110.72506,41.18837],[-110.72219,41.17705],[-110.71563,41.17032],[-110.70905,41.16412],[-110.70496,41.15642],[-110.70614,41.15408],[-110.71209,41.14411],[-110.71228,41.13805],[-110.70751,41.12908],[-110.70605,41.12245],[-110.70757,41.11781],[-110.70992,41.11267],[-110.7111,41.10995],[-110.71352,41.10727],[-110.71589,41.10456],[-110.73075,41.09241],[-110.73505,41.0839],[-110.73623,41.08029],[-110.73853,41.07359],[-110.73873,41.067],[-110.73579,41.05777],[-110.73042,41.05055],[-110.7265,41.04561],[-110.72332,41.04062],[-110.72103,41.03722],[-110.71755,41.02681],[-110.71395,41.00769],[-110.71515,41.00006],[-110.71714,40.99862],[-110.71519,40.99556],[-110.70643,40.98781],[-110.70006,40.97778],[-110.69251,40.97051],[-110.67816,40.96118],[-110.67189,40.95487],[-110.6668,40.94585],[-110.67198,40.9418],[-110.67996,40.93602],[-110.68904,40.92789],[-110.69086,40.92258],[-110.69045,40.90445],[-110.69305,40.89371],[-110.69571,40.88594],[-110.69548,40.87573],[-110.69733,40.87303],[-110.70003,40.86885],[-110.71337,40.86139],[-110.71184,40.85651],[-110.70514,40.8496],[-110.69723,40.84211],[-110.68667,40.82338],[-110.68336,40.81595],[-110.68161,40.809],[-110.67928,40.8002],[-110.68129,40.77627],[-110.68416,40.75686],[-110.68782,40.74777],[-110.68901,40.74325],[-110.70012,40.74801],[-110.7044,40.7496],[-110.70898,40.75141],[-110.71487,40.75152],[-110.7198,40.74876],[-110.72741,40.74439],[-110.73753,40.74426],[-110.74796,40.74772],[-110.75298,40.74523],[-110.75889,40.74162],[-110.76485,40.73805],[-110.77076,40.73444],[-110.77536,40.73275],[-110.78188,40.72801],[-110.78863,40.72156],[-110.79998,40.71435],[-110.80638,40.712],[-110.81092,40.71023],[-110.82142,40.70908],[-110.82296,40.71021],[-110.82743,40.71542],[-110.82884,40.71654],[-110.83359,40.71923],[-110.8441,40.72532],[-110.8563,40.72216],[-110.86376,40.72333]]]]}},{"type":"Feature","properties":{"Name":"Weber"},"geometry":{"type":"MultiPolygon","coordinates":[[[[-111.94314,40.93756],[-111.94229,40.93961],[-111.93789,40.94525],[-111.93339,40.95114],[-111.9321,40.95467],[-111.93699,40.96064],[-111.93939,40.96778],[-111.94078,40.97169],[-111.9457,40.98061],[-111.95216,40.98521],[-111.95475,40.98721],[-111.95167,40.99186],[-111.9505,40.99499],[-111.96355,41.00045],[-111.97179,41.0019],[-111.97782,41.00492],[-111.9795,41.01556],[-111.98422,41.01873],[-111.98652,41.01688],[-111.99065,41.0169],[-111.99469,41.01681],[-111.99845,41.01775],[-112.00191,41.01766],[-112.01972,41.0227],[-112.02631,41.02386],[-112.03886,41.02355],[-112.04848,41.02719],[-112.05219,41.02851],[-112.06025,41.02528],[-112.06761,41.02431],[-112.0724,41.02613],[-112.07821,41.03493],[-112.08054,41.03658],[-112.09118,41.03371],[-112.09596,41.03738],[-112.09276,41.04476],[-112.09614,41.04958],[-112.09838,41.05924],[-112.10152,41.06371],[-112.11106,41.06893],[-112.11551,41.07335],[-112.1214,41.09247],[-112.12517,41.10046],[-112.12929,41.10494],[-112.14261,41.11221],[-112.17015,41.12279],[-112.20508,41.13192],[-112.21854,41.13588],[-112.23096,41.14354],[-112.2379,41.14997],[-112.24382,41.15886],[-112.24735,41.16916],[-112.24908,41.19217],[-112.25297,41.20799],[-112.25431,41.21738],[-112.24855,41.22786],[-112.24605,41.23285],[-112.2429,41.24325],[-112.2393,41.25158],[-112.2369,41.27583],[-112.22121,41.29751],[-112.21963,41.30135],[-112.21558,41.3147],[-112.20983,41.33207],[-112.20744,41.33569],[-112.19452,41.34531],[-112.18865,41.353],[-112.17566,41.35473],[-112.16076,41.35915],[-112.13526,41.37413],[-112.13228,41.37891],[-112.10464,41.39687],[-112.08218,41.41151],[-112.07415,41.41664],[-112.06975,41.42017],[-112.06754,41.42074],[-112.05026,41.4262],[-112.0405,41.4254],[-112.02806,41.42281],[-112.01774,41.42379],[-112.0082,41.42479],[-112.00102,41.42474],[-111.99974,41.43115],[-111.98894,41.43035],[-111.97991,41.42695],[-111.96936,41.42433],[-111.95813,41.42425],[-111.95553,41.42522],[-111.95421,41.43064],[-111.95159,41.42961],[-111.93633,41.4218],[-111.92911,41.41733],[-111.92205,41.41393],[-111.91124,41.40705],[-111.90302,41.40501],[-111.89444,41.40495],[-111.87497,41.40965],[-111.86307,41.40165],[-111.85973,41.39908],[-111.84907,41.39505],[-111.84143,41.39371],[-111.829,41.39109],[-111.81869,41.39205],[-111.80564,41.39358],[-111.79311,41.39183],[-111.78343,41.38218],[-111.76993,41.37461],[-111.76265,41.37184],[-111.75172,41.36911],[-111.74463,41.37077],[-111.73601,41.37419],[-111.72835,41.37705],[-111.72092,41.38884],[-111.70973,41.39877],[-111.70285,41.40747],[-111.70409,41.41354],[-111.70652,41.42046],[-111.70673,41.42594],[-111.70433,41.42974],[-111.70066,41.42888],[-111.69088,41.42263],[-111.68625,41.42354],[-111.67937,41.42711],[-111.66848,41.42734],[-111.663,41.42343],[-111.65576,41.41087],[-111.64316,41.39771],[-111.63348,41.39761],[-111.63097,41.40044],[-111.62211,41.41294],[-111.6138,41.41514],[-111.57645,41.4173],[-111.57251,41.41876],[-111.57023,41.42057],[-111.55875,41.41924],[-111.5545,41.4162],[-111.54635,41.4099],[-111.53618,41.40979],[-111.53061,41.41267],[-111.5282,41.41357],[-111.52118,41.41719],[-111.51735,41.41815],[-111.51009,41.4219],[-111.49992,41.41124],[-111.49551,41.40902],[-111.48411,41.40492],[-111.47788,41.40046],[-111.47778,41.39782],[-111.4792,41.38913],[-111.47615,41.38218],[-111.46789,41.37578],[-111.45476,41.36704],[-111.44811,41.36449],[-111.44105,41.3627],[-111.42976,41.36083],[-111.42255,41.35998],[-111.416,41.35899],[-111.40799,41.36049],[-111.39619,41.36774],[-111.38585,41.37179],[-111.37735,41.37195],[-111.36389,41.36297],[-111.34361,41.36204],[-111.33907,41.3585],[-111.33529,41.35754],[-111.32735,41.3564],[-111.32568,41.35398],[-111.32586,41.34596],[-111.32327,41.34497],[-111.31854,41.34325],[-111.30529,41.33421],[-111.30095,41.33208],[-111.2981,41.32882],[-111.2943,41.32508],[-111.29448,41.31719],[-111.29206,41.31442],[-111.28964,41.31355],[-111.2789,41.30661],[-111.2729,41.30546],[-111.25838,41.30443],[-111.25261,41.30027],[-111.25225,41.2889],[-111.25595,41.28311],[-111.26045,41.27956],[-111.27138,41.27412],[-111.27731,41.26818],[-111.27983,41.26068],[-111.27989,41.25795],[-111.27805,41.24824],[-111.27621,41.24422],[-111.2723,41.23388],[-111.26263,41.22897],[-111.25468,41.22886],[-111.23834,41.22915],[-111.23086,41.22547],[-111.22361,41.21291],[-111.22477,41.21098],[-111.22955,41.20469],[-111.23071,41.20287],[-111.23301,41.19947],[-111.23429,41.19567],[-111.23544,41.19205],[-111.23783,41.18493],[-111.23744,41.17215],[-111.24589,41.15889],[-111.2508,41.15418],[-111.25665,41.14867],[-111.24856,41.14882],[-111.2433,41.14754],[-111.23355,41.14162],[-111.23122,41.14273],[-111.22461,41.14797],[-111.22018,41.1512],[-111.21315,41.15765],[-111.2091,41.15967],[-111.20318,41.1633],[-111.19482,41.1669],[-111.18797,41.17042],[-111.18175,41.17234],[-111.16397,41.17723],[-111.15673,41.18139],[-111.15314,41.18318],[-111.14959,41.185],[-111.14587,41.18685],[-111.13469,41.19567],[-111.12433,41.19859],[-111.11981,41.20215],[-111.11263,41.20304],[-111.10801,41.20485],[-111.10346,41.20326],[-111.09603,41.19789],[-111.09288,41.193],[-111.08283,41.1891],[-111.07276,41.18541],[-111.0675,41.17564],[-111.06518,41.14847],[-111.0701,41.13696],[-111.07795,41.1238],[-111.08038,41.12023],[-111.08374,41.11498],[-111.08865,41.11028],[-111.09415,41.10512],[-111.10002,41.09778],[-111.10888,41.08055],[-111.11003,41.07513],[-111.11124,41.06974],[-111.1135,41.05198],[-111.11589,41.04132],[-111.11205,41.03398],[-111.10283,41.03116],[-111.0799,41.03083],[-111.0581,41.0362],[-111.05287,41.03914],[-111.04813,41.04186],[-111.04216,41.04455],[-111.03048,41.04992],[-111.02021,41.05008],[-111.01186,41.04539],[-111.00661,41.03768],[-111.00393,41.02779],[-111.00454,41.0051],[-111.00292,41.00132],[-111.00171,40.99863],[-110.99911,40.99258],[-110.98665,40.9805],[-110.98031,40.97341],[-110.97369,40.96575],[-110.96255,40.95494],[-110.95065,40.93925],[-110.95026,40.92447],[-110.9541,40.91848],[-110.96446,40.9158],[-110.97657,40.91401],[-110.98117,40.91231],[-110.99301,40.90368],[-110.99695,40.89789],[-110.99708,40.89323],[-110.99679,40.88278],[-110.99933,40.8779],[-111.00291,40.87161],[-111.00408,40.86889],[-111.00846,40.86068],[-111.01119,40.85462],[-111.00731,40.85114],[-110.99698,40.84817],[-110.9901,40.84648],[-110.98119,40.84246],[-110.97234,40.82859],[-110.96698,40.82436],[-110.96103,40.82092],[-110.95076,40.81581],[-110.95064,40.81124],[-110.95081,40.80509],[-110.94738,40.7997],[-110.94529,40.79805],[-110.93535,40.7923],[-110.92486,40.78707],[-110.91987,40.78206],[-110.91685,40.77307],[-110.91506,40.76045],[-110.91169,40.75546],[-110.90835,40.74383],[-110.90471,40.74095],[-110.8971,40.73813],[-110.88706,40.73016],[-110.8801,40.72843],[-110.86376,40.72333],[-110.86449,40.72135],[-110.86665,40.71923],[-110.8742,40.71602],[-110.87969,40.71293],[-110.88893,40.71038],[-110.89256,40.70825],[-110.89777,40.69844],[-110.90288,40.69545],[-110.90822,40.69769],[-110.92028,40.70566],[-110.93947,40.70671],[-110.95294,40.70458],[-110.96854,40.70042],[-110.98483,40.69873],[-110.99368,40.69304],[-111.00528,40.68785],[-111.00814,40.6855],[-111.01948,40.68064],[-111.03508,40.67365],[-111.05501,40.66957],[-111.06683,40.66434],[-111.08366,40.65048],[-111.08658,40.64575],[-111.08801,40.63593],[-111.08563,40.62383],[-111.08699,40.62086],[-111.09394,40.61394],[-111.10139,40.60586],[-111.1111,40.60003],[-111.11755,40.5977],[-111.12362,40.59524],[-111.12932,40.59225],[-111.13467,40.5896],[-111.14274,40.58866],[-111.14845,40.59334],[-111.14815,40.59945],[-111.14835,40.60321],[-111.15172,40.60558],[-111.16886,40.60173],[-111.18237,40.59461],[-111.19348,40.58742],[-111.2006,40.58484],[-111.21026,40.58592],[-111.21727,40.58778],[-111.22317,40.59262],[-111.23335,40.60632],[-111.24587,40.6216],[-111.25785,40.62929],[-111.26458,40.63075],[-111.27298,40.62735],[-111.28306,40.619],[-111.289,40.61542],[-111.29603,40.61086],[-111.2988,40.60985],[-111.3034,40.60998],[-111.30969,40.6125],[-111.32107,40.6191],[-111.32823,40.62165],[-111.33098,40.62156],[-111.33483,40.62166],[-111.34844,40.62379],[-111.3576,40.62964],[-111.36967,40.63048],[-111.37317,40.63334],[-111.37301,40.63678],[-111.37318,40.63978],[-111.38245,40.65119],[-111.38378,40.65838],[-111.38717,40.66459],[-111.38858,40.67008],[-111.38983,40.67364],[-111.39103,40.68448],[-111.39248,40.68759],[-111.39838,40.68893],[-111.40524,40.6853],[-111.41521,40.68098],[-111.42991,40.6842],[-111.43398,40.68631],[-111.43719,40.68566],[-111.43413,40.67267],[-111.43005,40.6652],[-111.43434,40.66214],[-111.44547,40.65941],[-111.44882,40.65541],[-111.45152,40.65273],[-111.46031,40.65504],[-111.46689,40.65155],[-111.47121,40.64361],[-111.47314,40.64079],[-111.47481,40.63112],[-111.48042,40.62548],[-111.4819,40.61817],[-111.48135,40.60891],[-111.48554,40.60101],[-111.49376,40.60122],[-111.50125,40.60318],[-111.50754,40.60569],[-111.51238,40.6074],[-111.5147,40.60832],[-111.52523,40.61164],[-111.54245,40.61267],[-111.55377,40.6108],[-111.5553,40.61895],[-111.56334,40.62338],[-111.57063,40.62801],[-111.57841,40.64184],[-111.58315,40.64649],[-111.59186,40.65255],[-111.59533,40.66071],[-111.60078,40.67005],[-111.6004,40.67906],[-111.60051,40.68086],[-111.60039,40.68357],[-111.60059,40.68686],[-111.60537,40.69207],[-111.6053,40.69354],[-111.60059,40.69526],[-111.59712,40.69668],[-111.59101,40.69891],[-111.59124,40.70265],[-111.59361,40.7043],[-111.59954,40.71061],[-111.61003,40.71969],[-111.61154,40.72767],[-111.61285,40.73045],[-111.61755,40.7321],[-111.62026,40.73318],[-111.62352,40.74256],[-111.62,40.74651],[-111.61889,40.74941],[-111.62243,40.75442],[-111.62482,40.76181],[-111.63127,40.76333],[-111.6374,40.76959],[-111.64539,40.77513],[-111.64498,40.78478],[-111.64263,40.78823],[-111.64538,40.79321],[-111.64532,40.79443],[-111.64062,40.80131],[-111.63835,40.8107],[-111.63847,40.81263],[-111.63841,40.814],[-111.63983,40.81896],[-111.65455,40.82916],[-111.66474,40.83364],[-111.6659,40.83563],[-111.66356,40.83905],[-111.66107,40.84315],[-111.66136,40.84778],[-111.66504,40.85178],[-111.67682,40.85519],[-111.69106,40.85964],[-111.69867,40.86142],[-111.70143,40.86132],[-111.7076,40.8532],[-111.70964,40.85174],[-111.72126,40.85398],[-111.73571,40.85967],[-111.74696,40.85926],[-111.74915,40.85564],[-111.75043,40.85378],[-111.76318,40.85184],[-111.77781,40.84527],[-111.78999,40.84555],[-111.794,40.8454],[-111.80137,40.84076],[-111.80701,40.83869],[-111.81237,40.84007],[-111.81848,40.83881],[-111.83478,40.83012],[-111.8429,40.83167],[-111.84846,40.83146],[-111.85888,40.82651],[-111.86731,40.82341],[-111.86957,40.82152],[-111.89334,40.82042],[-111.90372,40.82712],[-111.91107,40.83639],[-111.91344,40.84187],[-111.91538,40.86051],[-111.91916,40.88087],[-111.91654,40.88881],[-111.91363,40.89533],[-111.90934,40.90797],[-111.90786,40.91886],[-111.91414,40.92764],[-111.92306,40.93191],[-111.93537,40.93572],[-111.94137,40.93711],[-111.94314,40.93756]]]]}},{"type":"Feature","properties":{"Name":"Jordan/Provo"},"geometry":{"type":"MultiPolygon","coordinates":[[[[-112.17865,40.0111],[-112.17679,40.01841],[-112.17722,40.02463],[-112.1771,40.02805],[-112.17438,40.03213],[-112.17268,40.03744],[-112.17645,40.04423],[-112.17874,40.05121],[-112.18149,40.0581],[-112.18125,40.06519],[-112.17297,40.06679],[-112.17354,40.07512],[-112.17336,40.08038],[-112.16955,40.08609],[-112.15983,40.08797],[-112.15791,40.0896],[-112.15611,40.09738],[-112.15468,40.10065],[-112.15185,40.10489],[-112.15529,40.11108],[-112.16054,40.11473],[-112.16415,40.12308],[-112.17134,40.12731],[-112.17504,40.13029],[-112.16813,40.14608],[-112.17052,40.14944],[-112.17235,40.15231],[-112.17225,40.155],[-112.1566,40.1647],[-112.15383,40.17038],[-112.15244,40.17139],[-112.1443,40.17123],[-112.14461,40.17568],[-112.15044,40.17849],[-112.1528,40.18156],[-112.14822,40.18842],[-112.14715,40.19223],[-112.14989,40.19608],[-112.15977,40.19743],[-112.15784,40.20184],[-112.15631,40.20573],[-112.15065,40.2112],[-112.15331,40.21678],[-112.15789,40.23071],[-112.16204,40.23873],[-112.16627,40.24979],[-112.17111,40.25849],[-112.18016,40.26648],[-112.182,40.27206],[-112.1894,40.27884],[-112.18657,40.28993],[-112.19049,40.29969],[-112.19706,40.30889],[-112.19977,40.31432],[-112.19496,40.32152],[-112.19658,40.32601],[-112.19648,40.32875],[-112.17574,40.33596],[-112.18,40.34487],[-112.1945,40.36223],[-112.1912,40.3713],[-112.19149,40.37556],[-112.1987,40.3843],[-112.20004,40.38639],[-112.19885,40.40686],[-112.19578,40.41634],[-112.19466,40.42217],[-112.20913,40.43392],[-112.21167,40.44161],[-112.21452,40.45791],[-112.21289,40.46294],[-112.20142,40.46585],[-112.19423,40.46974],[-112.18911,40.47089],[-112.17508,40.4688],[-112.17591,40.48064],[-112.17929,40.50058],[-112.18405,40.51053],[-112.18563,40.51433],[-112.18021,40.52052],[-112.17821,40.52558],[-112.18106,40.54067],[-112.17812,40.54973],[-112.17694,40.55503],[-112.18199,40.56405],[-112.1807,40.57881],[-112.17509,40.58715],[-112.17629,40.60444],[-112.17801,40.60918],[-112.18578,40.61452],[-112.19032,40.61815],[-112.19509,40.62363],[-112.19469,40.63525],[-112.19504,40.64027],[-112.20169,40.65576],[-112.20119,40.67032],[-112.20176,40.67842],[-112.20161,40.68285],[-112.19938,40.68969],[-112.19833,40.6948],[-112.2024,40.70863],[-112.20847,40.71515],[-112.2247,40.72254],[-112.22666,40.7241],[-112.22021,40.72643],[-112.21595,40.72753],[-112.19419,40.74278],[-112.18889,40.74891],[-112.18435,40.75584],[-112.1809,40.76275],[-112.17365,40.76819],[-112.16624,40.776],[-112.15972,40.7809],[-112.15694,40.78422],[-112.146,40.79242],[-112.13914,40.80094],[-112.14103,40.80652],[-112.14349,40.81175],[-112.14239,40.81551],[-112.14122,40.81731],[-112.14014,40.82278],[-112.13664,40.8254],[-112.13661,40.828],[-112.13909,40.83176],[-112.14033,40.83353],[-112.14186,40.83585],[-112.14897,40.83896],[-112.15715,40.84597],[-112.15963,40.84876],[-112.16315,40.85127],[-112.16172,40.85606],[-112.15858,40.85861],[-112.15387,40.86213],[-112.1551,40.86583],[-112.15694,40.87101],[-112.15485,40.87932],[-112.15572,40.89903],[-112.15384,40.90363],[-112.15006,40.90373],[-112.14499,40.89744],[-112.13774,40.89123],[-112.13535,40.88587],[-112.13054,40.88405],[-112.1233,40.88148],[-112.11115,40.87539],[-112.10422,40.87444],[-112.10101,40.87082],[-112.09765,40.8709],[-112.09234,40.87087],[-112.09117,40.87454],[-112.09132,40.87814],[-112.08827,40.87822],[-112.08411,40.87819],[-112.0828,40.88483],[-112.06522,40.88272],[-112.0652,40.88427],[-112.06998,40.88597],[-112.07007,40.88807],[-112.05815,40.89039],[-112.05829,40.89373],[-112.04795,40.89652],[-112.04281,40.89752],[-112.03942,40.90026],[-112.03817,40.90025],[-112.03462,40.90121],[-112.03342,40.89939],[-112.03038,40.90061],[-112.02627,40.89855],[-112.02515,40.90222],[-112.02041,40.90402],[-112.01745,40.90521],[-111.99801,40.90778],[-111.99211,40.91218],[-112.00038,40.91363],[-111.99834,40.91946],[-111.99456,40.92047],[-111.9858,40.92163],[-111.97867,40.92739],[-111.97448,40.93052],[-111.96889,40.93503],[-111.95614,40.93807],[-111.94494,40.93799],[-111.94314,40.93756],[-111.94137,40.93711],[-111.93537,40.93572],[-111.92306,40.93191],[-111.91414,40.92764],[-111.90786,40.91886],[-111.90934,40.90797],[-111.91363,40.89533],[-111.91654,40.88881],[-111.91916,40.88087],[-111.91538,40.86051],[-111.91344,40.84187],[-111.91107,40.83639],[-111.90372,40.82712],[-111.89334,40.82042],[-111.86957,40.82152],[-111.86731,40.82341],[-111.85888,40.82651],[-111.84846,40.83146],[-111.8429,40.83167],[-111.83478,40.83012],[-111.81848,40.83881],[-111.81237,40.84007],[-111.80701,40.83869],[-111.80137,40.84076],[-111.794,40.8454],[-111.78999,40.84555],[-111.77781,40.84527],[-111.76318,40.85184],[-111.75043,40.85378],[-111.74915,40.85564],[-111.74696,40.85926],[-111.73571,40.85967],[-111.72126,40.85398],[-111.70964,40.85174],[-111.7076,40.8532],[-111.70143,40.86132],[-111.69867,40.86142],[-111.69106,40.85964],[-111.67682,40.85519],[-111.66504,40.85178],[-111.66136,40.84778],[-111.66107,40.84315],[-111.66356,40.83905],[-111.6659,40.83563],[-111.66474,40.83364],[-111.65455,40.82916],[-111.63983,40.81896],[-111.63841,40.814],[-111.63847,40.81263],[-111.63835,40.8107],[-111.64062,40.80131],[-111.64532,40.79443],[-111.64538,40.79321],[-111.64263,40.78823],[-111.64498,40.78478],[-111.64539,40.77513],[-111.6374,40.76959],[-111.63127,40.76333],[-111.62482,40.76181],[-111.62243,40.75442],[-111.61889,40.74941],[-111.62,40.74651],[-111.62352,40.74256],[-111.62026,40.73318],[-111.61755,40.7321],[-111.61285,40.73045],[-111.61154,40.72767],[-111.61003,40.71969],[-111.59954,40.71061],[-111.59361,40.7043],[-111.59124,40.70265],[-111.59101,40.69891],[-111.59712,40.69668],[-111.60059,40.69526],[-111.6053,40.69354],[-111.60537,40.69207],[-111.60059,40.68686],[-111.60039,40.68357],[-111.60051,40.68086],[-111.6004,40.67906],[-111.60078,40.67005],[-111.59533,40.66071],[-111.59186,40.65255],[-111.58315,40.64649],[-111.57841,40.64184],[-111.57063,40.62801],[-111.56334,40.62338],[-111.5553,40.61895],[-111.55377,40.6108],[-111.54245,40.61267],[-111.52523,40.61164],[-111.5147,40.60832],[-111.51238,40.6074],[-111.50754,40.60569],[-111.50125,40.60318],[-111.49376,40.60122],[-111.48554,40.60101],[-111.48135,40.60891],[-111.4819,40.61817],[-111.48042,40.62548],[-111.47481,40.63112],[-111.47314,40.64079],[-111.47121,40.64361],[-111.46689,40.65155],[-111.46031,40.65504],[-111.45152,40.65273],[-111.44882,40.65541],[-111.44547,40.65941],[-111.43434,40.66214],[-111.43005,40.6652],[-111.43413,40.67267],[-111.43719,40.68566],[-111.43398,40.68631],[-111.42991,40.6842],[-111.41521,40.68098],[-111.40524,40.6853],[-111.39838,40.68893],[-111.39248,40.68759],[-111.39103,40.68448],[-111.38983,40.67364],[-111.38858,40.67008],[-111.38717,40.66459],[-111.38378,40.65838],[-111.38245,40.65119],[-111.37318,40.63978],[-111.37301,40.63678],[-111.37317,40.63334],[-111.36967,40.63048],[-111.3576,40.62964],[-111.34844,40.62379],[-111.33483,40.62166],[-111.33098,40.62156],[-111.32823,40.62165],[-111.32107,40.6191],[-111.30969,40.6125],[-111.3034,40.60998],[-111.2988,40.60985],[-111.29603,40.61086],[-111.289,40.61542],[-111.28306,40.619],[-111.27298,40.62735],[-111.26458,40.63075],[-111.25785,40.62929],[-111.24587,40.6216],[-111.23335,40.60632],[-111.22317,40.59262],[-111.21727,40.58778],[-111.21026,40.58592],[-111.2006,40.58484],[-111.19348,40.58742],[-111.18237,40.59461],[-111.16886,40.60173],[-111.15172,40.60558],[-111.14835,40.60321],[-111.14815,40.59945],[-111.14845,40.59334],[-111.14274,40.58866],[-111.13467,40.5896],[-111.12932,40.59225],[-111.12362,40.59524],[-111.11755,40.5977],[-111.1111,40.60003],[-111.10139,40.60586],[-111.09394,40.61394],[-111.08699,40.62086],[-111.08563,40.62383],[-111.08801,40.63593],[-111.08658,40.64575],[-111.08366,40.65048],[-111.06683,40.66434],[-111.05501,40.66957],[-111.03508,40.67365],[-111.01948,40.68064],[-111.00814,40.6855],[-111.00528,40.68785],[-110.99368,40.69304],[-110.98483,40.69873],[-110.96854,40.70042],[-110.95294,40.70458],[-110.93947,40.70671],[-110.92028,40.70566],[-110.90822,40.69769],[-110.90288,40.69545],[-110.90406,40.68947],[-110.89996,40.68356],[-110.90229,40.67966],[-110.91193,40.67034],[-110.91769,40.66256],[-110.92329,40.65523],[-110.92772,40.6359],[-110.93131,40.63012],[-110.93612,40.62321],[-110.94014,40.61449],[-110.94056,40.60647],[-110.93619,40.59854],[-110.93199,40.59248],[-110.9308,40.58675],[-110.92611,40.57998],[-110.92795,40.57368],[-110.93525,40.57074],[-110.96198,40.56966],[-110.9733,40.56761],[-110.97351,40.56373],[-110.9695,40.55899],[-110.95337,40.5457],[-110.93684,40.53755],[-110.93644,40.52969],[-110.9411,40.52419],[-110.94788,40.52284],[-110.96528,40.52073],[-110.97166,40.51759],[-110.97893,40.51352],[-110.9828,40.51034],[-110.98992,40.50587],[-110.99958,40.49948],[-111.01943,40.49145],[-111.02543,40.4852],[-111.03267,40.47923],[-111.04005,40.47559],[-111.04602,40.47209],[-111.05363,40.46982],[-111.05792,40.46808],[-111.06544,40.46688],[-111.09002,40.46522],[-111.10069,40.46022],[-111.10645,40.45868],[-111.11608,40.45713],[-111.13241,40.45602],[-111.1443,40.45427],[-111.16289,40.44901],[-111.17151,40.44288],[-111.17677,40.43762],[-111.18313,40.42644],[-111.18056,40.41531],[-111.18145,40.41337],[-111.19027,40.41023],[-111.21071,40.40811],[-111.21874,40.40527],[-111.22603,40.40027],[-111.23222,40.39413],[-111.23724,40.38571],[-111.2453,40.37429],[-111.24668,40.35904],[-111.25171,40.35351],[-111.25592,40.34753],[-111.25478,40.3335],[-111.25493,40.33138],[-111.25362,40.31996],[-111.25225,40.30945],[-111.25446,40.30574],[-111.25993,40.3028],[-111.27816,40.29667],[-111.28991,40.28924],[-111.29835,40.28452],[-111.30431,40.27436],[-111.28896,40.2695],[-111.28055,40.26378],[-111.27593,40.25613],[-111.26672,40.24788],[-111.26413,40.24242],[-111.26674,40.24017],[-111.27084,40.23735],[-111.27296,40.21989],[-111.26483,40.21102],[-111.2626,40.20732],[-111.25852,40.20331],[-111.25522,40.19784],[-111.24681,40.19211],[-111.23813,40.18357],[-111.2343,40.17855],[-111.22732,40.17168],[-111.22659,40.16261],[-111.22828,40.15694],[-111.22991,40.15223],[-111.22538,40.14438],[-111.22359,40.13713],[-111.22233,40.13267],[-111.22257,40.1295],[-111.22223,40.12538],[-111.2254,40.12088],[-111.22873,40.10883],[-111.23733,40.10578],[-111.2344,40.09956],[-111.24214,40.091],[-111.24097,40.08553],[-111.23756,40.08074],[-111.24065,40.07405],[-111.23834,40.06913],[-111.23971,40.06682],[-111.24314,40.06302],[-111.2477,40.05653],[-111.24522,40.04646],[-111.23968,40.04268],[-111.23747,40.03723],[-111.23078,40.03446],[-111.22558,40.03599],[-111.20418,40.05067],[-111.2028,40.04933],[-111.20101,40.04347],[-111.19976,40.03992],[-111.19864,40.03537],[-111.19153,40.02912],[-111.18806,40.02457],[-111.17427,40.01316],[-111.17031,40.00758],[-111.16709,39.99703],[-111.16291,39.992],[-111.15807,39.99085],[-111.15316,39.98694],[-111.1421,39.98592],[-111.13402,39.97873],[-111.13252,39.97287],[-111.12817,39.97061],[-111.11884,39.96922],[-111.11871,39.96461],[-111.12101,39.95731],[-111.13162,39.948],[-111.12696,39.94629],[-111.12097,39.94539],[-111.11419,39.94271],[-111.10937,39.9436],[-111.10421,39.94496],[-111.09316,39.94222],[-111.07427,39.9365],[-111.07417,39.93295],[-111.07867,39.92711],[-111.09878,39.91096],[-111.11172,39.90304],[-111.11618,39.89594],[-111.12316,39.89229],[-111.13152,39.89215],[-111.14657,39.89237],[-111.15138,39.88688],[-111.15154,39.88045],[-111.14902,39.86549],[-111.15249,39.85886],[-111.15601,39.85437],[-111.15715,39.84524],[-111.16052,39.8376],[-111.16072,39.82948],[-111.15945,39.82551],[-111.15595,39.81888],[-111.15581,39.81409],[-111.15777,39.80939],[-111.17611,39.8083],[-111.17998,39.79594],[-111.1834,39.79457],[-111.1874,39.79666],[-111.19561,39.80023],[-111.20483,39.80617],[-111.20962,39.80743],[-111.21733,39.80886],[-111.22363,39.81351],[-111.22593,39.82072],[-111.23372,39.82188],[-111.2365,39.82626],[-111.24182,39.82765],[-111.258,39.82579],[-111.26812,39.82893],[-111.27487,39.83097],[-111.28333,39.8343],[-111.29028,39.83688],[-111.29269,39.84045],[-111.29545,39.8479],[-111.30262,39.85362],[-111.30887,39.85516],[-111.31806,39.85942],[-111.32421,39.85747],[-111.32588,39.84936],[-111.33358,39.84741],[-111.33491,39.83764],[-111.34179,39.83505],[-111.34634,39.83322],[-111.35597,39.83216],[-111.35554,39.81879],[-111.35685,39.81246],[-111.35928,39.80878],[-111.35908,39.80255],[-111.35923,39.79567],[-111.35773,39.79122],[-111.36029,39.7871],[-111.3743,39.78237],[-111.39042,39.78373],[-111.39991,39.7808],[-111.40572,39.77896],[-111.41041,39.77806],[-111.4166,39.7761],[-111.42789,39.77623],[-111.42672,39.77168],[-111.42433,39.76289],[-111.42584,39.7626],[-111.4324,39.76268],[-111.43936,39.75912],[-111.44404,39.75374],[-111.4472,39.74402],[-111.45078,39.73113],[-111.4556,39.72752],[-111.46098,39.71885],[-111.47103,39.71614],[-111.48025,39.71793],[-111.48468,39.71559],[-111.49784,39.7099],[-111.50367,39.70516],[-111.51124,39.70048],[-111.5131,39.69746],[-111.51491,39.69834],[-111.52075,39.70193],[-111.52311,39.70281],[-111.53175,39.70813],[-111.54506,39.70543],[-111.55113,39.70628],[-111.55695,39.70807],[-111.56282,39.70983],[-111.5734,39.7133],[-111.58395,39.70928],[-111.58962,39.70179],[-111.59658,39.70045],[-111.60235,39.69702],[-111.61063,39.69608],[-111.61751,39.69329],[-111.625,39.69337],[-111.63266,39.69237],[-111.63786,39.69096],[-111.64858,39.68928],[-111.65441,39.67982],[-111.66477,39.673],[-111.67527,39.66874],[-111.68254,39.66774],[-111.69737,39.6664],[-111.7058,39.66318],[-111.71032,39.65948],[-111.71511,39.65938],[-111.72201,39.65944],[-111.73023,39.65664],[-111.73836,39.65536],[-111.73838,39.65389],[-111.73825,39.65033],[-111.74176,39.64496],[-111.74181,39.64188],[-111.73585,39.63498],[-111.73112,39.63052],[-111.72427,39.62349],[-111.71704,39.61888],[-111.71017,39.61545],[-111.70792,39.60115],[-111.71209,39.59278],[-111.72023,39.58914],[-111.72501,39.58628],[-111.74321,39.58645],[-111.74959,39.58265],[-111.75516,39.5835],[-111.76191,39.58885],[-111.7699,39.58893],[-111.77708,39.58697],[-111.78083,39.58959],[-111.78552,39.59691],[-111.78905,39.59949],[-111.79325,39.60486],[-111.79493,39.60487],[-111.80358,39.60344],[-111.80748,39.60628],[-111.81013,39.60925],[-111.81297,39.61368],[-111.82184,39.61458],[-111.82639,39.61574],[-111.85446,39.61436],[-111.86924,39.6119],[-111.88705,39.61412],[-111.90476,39.6151],[-111.91539,39.61833],[-111.92032,39.61837],[-111.92871,39.61817],[-111.9322,39.61945],[-111.93375,39.62186],[-111.94242,39.6231],[-111.94439,39.62453],[-111.9443,39.63161],[-111.95095,39.63901],[-111.95613,39.6466],[-111.9586,39.65227],[-111.96545,39.65232],[-111.97028,39.64949],[-111.97581,39.64494],[-111.97836,39.64488],[-111.98536,39.64493],[-111.99928,39.64459],[-112.00286,39.64741],[-112.01132,39.6512],[-112.01489,39.65379],[-112.02167,39.66428],[-112.02856,39.66848],[-112.04637,39.67277],[-112.04529,39.67677],[-112.04199,39.68596],[-112.04189,39.69526],[-112.04329,39.6993],[-112.0448,39.70699],[-112.05142,39.71663],[-112.05339,39.7352],[-112.06474,39.74027],[-112.0685,39.74719],[-112.06609,39.75471],[-112.05147,39.77726],[-112.06092,39.78071],[-112.07051,39.77679],[-112.07446,39.77989],[-112.08772,39.78175],[-112.08786,39.78517],[-112.08562,39.79073],[-112.0844,39.79174],[-112.07997,39.79511],[-112.07777,39.7985],[-112.07612,39.80696],[-112.06961,39.81699],[-112.06842,39.82097],[-112.06512,39.82871],[-112.06508,39.83188],[-112.06871,39.83603],[-112.07336,39.84065],[-112.07476,39.84866],[-112.08073,39.85733],[-112.07946,39.86529],[-112.07137,39.87036],[-112.05888,39.88115],[-112.05762,39.8888],[-112.05442,39.89372],[-112.05584,39.89494],[-112.0591,39.89729],[-112.06078,39.90211],[-112.05927,39.90459],[-112.05734,39.90756],[-112.06042,39.90996],[-112.06987,39.9108],[-112.08027,39.91168],[-112.08265,39.92214],[-112.08732,39.9258],[-112.09227,39.9277],[-112.10031,39.92863],[-112.10303,39.93572],[-112.10543,39.93919],[-112.10225,39.94576],[-112.094,39.95434],[-112.10112,39.96095],[-112.1101,39.97332],[-112.11419,39.97435],[-112.1275,39.97534],[-112.13722,39.98401],[-112.14291,39.98976],[-112.14965,39.99462],[-112.15091,39.99837],[-112.15435,40.00085],[-112.15925,40.00579],[-112.16865,40.00804],[-112.17688,40.01067],[-112.17865,40.0111]]]]}}]}