{"type":"FeatureCollection","features":[{"type":"Feature","properties":{"name":"Wasatch Range"},"geometry":{"type":"Polygon","coordinates":[[[-111.73145,38.5137],[-111.6211,38.37612],[-111.45081,38.36966],[-111.39862,38.51379],[-111.3973,38.65816],[-111.39593,38.80812],[-111.39588,38.81403],[-111.35097,38.96807],[-111.32172,39.06825],[-111.29295,39.11782],[-111.20877,39.26266],[-111.18439,39.30455],[-111.12608,39.40934],[-111.08277,39.48709],[-111.08631,39.55702],[-111.0934,39.69691],[-111.0965,39.75788],[-111.11035,39.84114],[-111.13609,39.99564],[-111.15967,40.13689],[-111.18361,40.15449],[-111.32962,40.26171],[-111.3739,40.29419],[-111.4779,40.40516],[-111.5387,40.46994],[-111.53933,40.50455],[-111.54016,40.55067],[-111.54281,40.69654],[-111.54419,40.77222],[-111.57407,40.8373],[-111.64328,40.98783],[-111.6568,41.01721],[-111.62236,41.13405],[-111.5799,41.27781],[-111.48102,41.40566],[-111.4766,41.42196],[-111.43712,41.56748],[-111.41236,41.65855],[-111.4146,41.713],[-111.42071,41.861],[-111.42334,41.92476],[-111.43448,42.01482],[-111.45228,42.1529],[-111.45905,42.20614],[-111.4782,42.29952],[-111.50574,42.4336],[-111.50555,42.44437],[-111.49101,42.54598],[-111.49543,42.54927],[-111.49529,42.55077],[-111.49904,42.55507],[-111.50113,42.56062],[-111.50299,42.56217],[-111.50589,42.56259],[-111.50954,42.57083],[-111.509,42.57555],[-111.51039,42.57842],[-111.51056,42.57968],[-111.5097,42.58405],[-111.50926,42.58548],[-111.51101,42.58918],[-111.50878,42.59293],[-111.50957,42.59622],[-111.52177,42.60133],[-111.52534,42.60206],[-111.52977,42.60205],[-111.54035,42.59966],[-111.54457,42.59961],[-111.54951,42.59848],[-111.55506,42.59956],[-111.55901,42.59835],[-111.56283,42.59618],[-111.56372,42.59515],[-111.56401,42.59128],[-111.56474,42.58971],[-111.56787,42.58949],[-111.58198,42.59526],[-111.5926,42.59793],[-111.61135,42.6011],[-111.62252,42.60574],[-111.63279,42.61094],[-111.64249,42.61836],[-111.64897,42.62561],[-111.65217,42.62945],[-111.65449,42.63007],[-111.66121,42.63065],[-111.66564,42.63302],[-111.67276,42.63398],[-111.67607,42.63599],[-111.6779,42.63789],[-111.67865,42.6392],[-111.67999,42.63972],[-111.68341,42.63931],[-111.68465,42.6394],[-111.68643,42.64125],[-111.68687,42.64219],[-111.68859,42.64299],[-111.69011,42.64259],[-111.69624,42.64336],[-111.69936,42.64489],[-111.70299,42.64689],[-111.70491,42.64738],[-111.70769,42.647],[-111.70979,42.64598],[-111.71075,42.64512],[-111.7109,42.64328],[-111.71007,42.64085],[-111.70806,42.6388],[-111.70656,42.63461],[-111.70666,42.63274],[-111.70288,42.62762],[-111.70108,42.62461],[-111.70029,42.62232],[-111.7003,42.61306],[-111.70397,42.61162],[-111.70631,42.60902],[-111.70623,42.6083],[-111.70391,42.60707],[-111.70272,42.6057],[-111.7023,42.60417],[-111.70271,42.60295],[-111.70268,42.6023],[-111.70023,42.60008],[-111.69886,42.59272],[-111.69827,42.58485],[-111.6977,42.58422],[-111.69369,42.58369],[-111.69821,42.58221],[-111.69856,42.58133],[-111.69776,42.57962],[-111.69395,42.57749],[-111.68954,42.5732],[-111.69051,42.5677],[-111.69026,42.56697],[-111.68814,42.56582],[-111.6858,42.56378],[-111.68101,42.56327],[-111.6724,42.56094],[-111.67271,42.55963],[-111.67816,42.55977],[-111.68067,42.56019],[-111.68325,42.55977],[-111.68992,42.56106],[-111.69269,42.56067],[-111.69301,42.55913],[-111.69513,42.5571],[-111.69627,42.55466],[-111.69628,42.55334],[-111.69556,42.55272],[-111.69184,42.54801],[-111.68833,42.54714],[-111.6884,42.54672],[-111.69067,42.5456],[-111.69093,42.54481],[-111.68942,42.54249],[-111.6914,42.54102],[-111.6934,42.53729],[-111.6937,42.53375],[-111.69289,42.53297],[-111.68961,42.53179],[-111.68608,42.53133],[-111.68741,42.52958],[-111.6876,42.5289],[-111.68539,42.52742],[-111.68666,42.52572],[-111.68599,42.52046],[-111.68202,42.51751],[-111.68118,42.51486],[-111.68089,42.5144],[-111.68006,42.51442],[-111.67962,42.51855],[-111.67811,42.51827],[-111.67597,42.51504],[-111.6744,42.51353],[-111.67332,42.51351],[-111.67261,42.51424],[-111.67246,42.51575],[-111.67415,42.5198],[-111.67522,42.52336],[-111.67409,42.52925],[-111.6729,42.52943],[-111.67185,42.52809],[-111.66782,42.52715],[-111.66731,42.52546],[-111.66992,42.52374],[-111.67104,42.52207],[-111.67111,42.52052],[-111.67064,42.51926],[-111.6677,42.51763],[-111.66297,42.51296],[-111.6637,42.50601],[-111.66347,42.50114],[-111.66185,42.4975],[-111.66479,42.49337],[-111.66434,42.4921],[-111.66055,42.48875],[-111.66083,42.4873],[-111.66298,42.48591],[-111.66568,42.4819],[-111.66927,42.48011],[-111.66979,42.47869],[-111.66932,42.47451],[-111.67064,42.47176],[-111.67091,42.46886],[-111.66931,42.46728],[-111.66931,42.46601],[-111.67124,42.46467],[-111.67146,42.46354],[-111.66996,42.45944],[-111.67327,42.45312],[-111.6759,42.44614],[-111.68529,42.44302],[-111.68564,42.44233],[-111.68434,42.43975],[-111.68492,42.43841],[-111.69517,42.43748],[-111.69793,42.43201],[-111.70397,42.43157],[-111.70654,42.43024],[-111.7078,42.42891],[-111.70785,42.42872],[-111.70667,42.42675],[-111.70659,42.42635],[-111.70677,42.42524],[-111.70847,42.42277],[-111.70844,42.42212],[-111.7084,42.42073],[-111.70943,42.41973],[-111.71027,42.4194],[-111.71192,42.41974],[-111.71327,42.4196],[-111.71456,42.4188],[-111.71604,42.41853],[-111.71674,42.41801],[-111.71672,42.4168],[-111.71506,42.41418],[-111.71593,42.41336],[-111.7185,42.41251],[-111.72147,42.41053],[-111.72344,42.40819],[-111.72368,42.40663],[-111.72322,42.4051],[-111.7195,42.39996],[-111.71636,42.39665],[-111.71557,42.39524],[-111.71532,42.39341],[-111.71543,42.39169],[-111.71513,42.39051],[-111.71277,42.38243],[-111.71308,42.37807],[-111.71442,42.37457],[-111.71872,42.37214],[-111.72006,42.37002],[-111.71938,42.36662],[-111.71619,42.36251],[-111.713,42.3593],[-111.71047,42.35383],[-111.71056,42.34844],[-111.71205,42.34406],[-111.71135,42.3384],[-111.71151,42.33614],[-111.71099,42.33338],[-111.71188,42.33132],[-111.71523,42.33027],[-111.71568,42.32825],[-111.71549,42.32723],[-111.7134,42.32598],[-111.7129,42.32224],[-111.71336,42.32099],[-111.714,42.32013],[-111.71409,42.31952],[-111.71394,42.31918],[-111.71256,42.31834],[-111.71062,42.31699],[-111.70952,42.31553],[-111.70808,42.3117],[-111.70695,42.30988],[-111.70669,42.30874],[-111.70714,42.3069],[-111.7082,42.30641],[-111.71002,42.30444],[-111.71165,42.30329],[-111.71436,42.30197],[-111.71693,42.30051],[-111.72004,42.29554],[-111.72273,42.29228],[-111.72794,42.28995],[-111.7302,42.28714],[-111.73024,42.28484],[-111.73487,42.28197],[-111.74097,42.28018],[-111.74391,42.27882],[-111.74441,42.27817],[-111.74444,42.27771],[-111.74171,42.2758],[-111.74047,42.27222],[-111.74147,42.26861],[-111.74587,42.26789],[-111.74751,42.26662],[-111.75111,42.26106],[-111.75239,42.25489],[-111.75481,42.25163],[-111.75545,42.25018],[-111.75524,42.24535],[-111.75538,42.2389],[-111.75617,42.23742],[-111.75686,42.23451],[-111.75745,42.2339],[-111.75954,42.23307],[-111.76053,42.23303],[-111.76195,42.23397],[-111.76288,42.23382],[-111.76327,42.23292],[-111.76443,42.23179],[-111.76945,42.23002],[-111.77183,42.22792],[-111.77344,42.22451],[-111.77445,42.22318],[-111.77437,42.22095],[-111.77531,42.21873],[-111.7757,42.21561],[-111.77888,42.21253],[-111.78316,42.2104],[-111.78379,42.20896],[-111.78395,42.20503],[-111.78559,42.20038],[-111.78556,42.19967],[-111.77923,42.19561],[-111.77604,42.19266],[-111.77613,42.18943],[-111.77655,42.18848],[-111.78007,42.18732],[-111.78277,42.18742],[-111.7841,42.18645],[-111.78484,42.18343],[-111.78795,42.18167],[-111.79599,42.17971],[-111.80335,42.18053],[-111.80401,42.17965],[-111.80397,42.17804],[-111.80589,42.17375],[-111.80939,42.17111],[-111.81286,42.1673],[-111.81602,42.16226],[-111.81877,42.15812],[-111.81915,42.15514],[-111.81146,42.14542],[-111.8104,42.12367],[-111.80912,42.12114],[-111.80684,42.11706],[-111.80758,42.11237],[-111.8069,42.11093],[-111.80219,42.10681],[-111.80029,42.10262],[-111.79844,42.09859],[-111.79961,42.09463],[-111.79886,42.08604],[-111.79807,42.0822],[-111.79834,42.08166],[-111.80245,42.08133],[-111.80318,42.08159],[-111.80467,42.08367],[-111.80643,42.08415],[-111.80799,42.08385],[-111.81043,42.0822],[-111.81132,42.08109],[-111.81199,42.07767],[-111.81383,42.0749],[-111.81317,42.07243],[-111.81317,42.06778],[-111.81319,42.06416],[-111.8114,42.06287],[-111.80797,42.05927],[-111.80664,42.05541],[-111.80166,42.05338],[-111.79574,42.05349],[-111.78674,42.05986],[-111.78186,42.06373],[-111.77423,42.06849],[-111.77036,42.06944],[-111.76831,42.0683],[-111.7664,42.0678],[-111.76496,42.0666],[-111.76513,42.06513],[-111.76791,42.06313],[-111.77045,42.06272],[-111.77452,42.06102],[-111.77623,42.05866],[-111.77605,42.0576],[-111.77688,42.05611],[-111.77675,42.0553],[-111.77641,42.05491],[-111.77606,42.05013],[-111.77424,42.04676],[-111.77112,42.04443],[-111.77185,42.04057],[-111.76901,42.03416],[-111.76629,42.03274],[-111.76149,42.03285],[-111.75965,42.03132],[-111.75954,42.03016],[-111.76107,42.02834],[-111.76261,42.02235],[-111.76084,42.01891],[-111.76204,42.01776],[-111.76246,42.01398],[-111.76035,42.00641],[-111.75993,42.00104],[-111.75908,41.99954],[-111.75825,41.99585],[-111.75893,41.9943],[-111.7595,41.99403],[-111.76406,41.99448],[-111.76674,41.99391],[-111.77395,41.98765],[-111.77689,41.98254],[-111.77794,41.97852],[-111.77768,41.97156],[-111.77407,41.96868],[-111.7741,41.96514],[-111.77335,41.96239],[-111.77389,41.96096],[-111.77586,41.95856],[-111.77661,41.95587],[-111.77674,41.95295],[-111.77842,41.95163],[-111.7825,41.94922],[-111.78395,41.94748],[-111.78415,41.94505],[-111.78253,41.94258],[-111.77963,41.94042],[-111.77953,41.93791],[-111.78039,41.93715],[-111.7839,41.93603],[-111.78624,41.93379],[-111.78677,41.93166],[-111.78874,41.92854],[-111.78899,41.92458],[-111.79136,41.91965],[-111.79435,41.91596],[-111.7949,41.91344],[-111.79353,41.91001],[-111.79405,41.90662],[-111.79569,41.90042],[-111.79813,41.8986],[-111.80233,41.89799],[-111.80461,41.89807],[-111.80713,41.89714],[-111.80822,41.89519],[-111.80802,41.8901],[-111.80961,41.88683],[-111.80945,41.88541],[-111.80731,41.88308],[-111.80608,41.88119],[-111.80383,41.87894],[-111.80079,41.87836],[-111.79721,41.87526],[-111.7939,41.87279],[-111.79271,41.86973],[-111.7916,41.8668],[-111.79026,41.865],[-111.79012,41.86443],[-111.79108,41.862],[-111.7937,41.86051],[-111.79798,41.85493],[-111.79881,41.85205],[-111.80107,41.85011],[-111.80409,41.84802],[-111.80535,41.84714],[-111.8053,41.84614],[-111.80471,41.84549],[-111.80094,41.8446],[-111.80003,41.84323],[-111.79663,41.83794],[-111.79474,41.83542],[-111.79302,41.83475],[-111.79209,41.83313],[-111.79126,41.83074],[-111.79234,41.82835],[-111.79247,41.82449],[-111.79099,41.8183],[-111.79009,41.81449],[-111.78872,41.81062],[-111.78569,41.80745],[-111.78446,41.80444],[-111.78315,41.80348],[-111.77541,41.80174],[-111.76982,41.80069],[-111.76788,41.79775],[-111.76917,41.79437],[-111.77222,41.79076],[-111.77387,41.78686],[-111.77597,41.78431],[-111.77579,41.78056],[-111.77667,41.77704],[-111.77748,41.77421],[-111.77845,41.77257],[-111.77919,41.76974],[-111.77997,41.76673],[-111.7813,41.76445],[-111.78336,41.76134],[-111.78481,41.75818],[-111.78619,41.75371],[-111.78614,41.75215],[-111.78656,41.75127],[-111.78697,41.74975],[-111.78657,41.74623],[-111.78592,41.74313],[-111.78643,41.74205],[-111.78761,41.7415],[-111.78822,41.74144],[-111.78917,41.74065],[-111.78942,41.74005],[-111.78937,41.73788],[-111.79096,41.73237],[-111.79112,41.72984],[-111.79293,41.72553],[-111.79436,41.72059],[-111.79386,41.71733],[-111.79425,41.71649],[-111.7943,41.71189],[-111.79483,41.70966],[-111.79513,41.70727],[-111.79438,41.70516],[-111.79476,41.7018],[-111.79398,41.70026],[-111.79403,41.69786],[-111.79564,41.69403],[-111.79533,41.69098],[-111.79583,41.68719],[-111.79667,41.68366],[-111.79844,41.68001],[-111.80398,41.67198],[-111.80568,41.66822],[-111.80628,41.666],[-111.80531,41.6633],[-111.80628,41.65861],[-111.80691,41.65447],[-111.80682,41.65085],[-111.80651,41.6462],[-111.8062,41.6423],[-111.8056,41.63702],[-111.80452,41.63435],[-111.80319,41.633],[-111.80263,41.63061],[-111.80215,41.62963],[-111.8008,41.62877],[-111.80008,41.62825],[-111.79993,41.62777],[-111.80103,41.62607],[-111.8023,41.62494],[-111.80341,41.62288],[-111.80342,41.6202],[-111.80313,41.61469],[-111.80102,41.61275],[-111.79728,41.60876],[-111.79209,41.60441],[-111.7878,41.59864],[-111.78793,41.59366],[-111.78865,41.58755],[-111.79212,41.58261],[-111.79197,41.57853],[-111.79264,41.57515],[-111.7939,41.5735],[-111.79835,41.5729],[-111.8002,41.5736],[-111.80083,41.57429],[-111.80234,41.5746],[-111.80384,41.5742],[-111.80454,41.57346],[-111.80655,41.57341],[-111.80826,41.57233],[-111.80973,41.57198],[-111.81131,41.57105],[-111.81146,41.57074],[-111.81314,41.56885],[-111.81326,41.56822],[-111.81295,41.56731],[-111.81299,41.56292],[-111.81362,41.55899],[-111.81295,41.55645],[-111.81423,41.55435],[-111.81395,41.55301],[-111.80792,41.54759],[-111.80627,41.53987],[-111.82714,41.46674],[-111.83258,41.39124],[-111.85828,41.32254],[-111.86597,41.30196],[-111.91307,41.17579],[-111.92048,41.15592],[-111.92039,41.0166],[-111.92029,40.85654],[-111.92048,40.80758],[-111.90427,40.78757],[-111.89025,40.77121],[-111.83113,40.70217],[-111.80158,40.66342],[-111.80446,40.65274],[-111.78886,40.63189],[-111.76949,40.62483],[-111.77196,40.62242],[-111.77644,40.61597],[-111.7826,40.61205],[-111.79073,40.6012],[-111.77509,40.57628],[-111.76637,40.55111],[-111.74381,40.48597],[-111.74858,40.4705],[-111.75266,40.44578],[-111.75376,40.43357],[-111.75157,40.42714],[-111.752,40.42324],[-111.75249,40.41846],[-111.75175,40.41286],[-111.74738,40.4012],[-111.74606,40.39804],[-111.74449,40.39435],[-111.74232,40.39182],[-111.73607,40.38535],[-111.72835,40.37909],[-111.70655,40.36714],[-111.7025,40.35885],[-111.70083,40.3528],[-111.69575,40.34744],[-111.68909,40.33942],[-111.6802,40.32803],[-111.67679,40.31914],[-111.65604,40.30616],[-111.64786,40.29036],[-111.64724,40.28634],[-111.64054,40.27812],[-111.63167,40.27146],[-111.62699,40.25375],[-111.62259,40.22323],[-111.62233,40.22026],[-111.57991,40.16419],[-111.56615,40.15628],[-111.55465,40.15241],[-111.55315,40.14714],[-111.55207,40.13425],[-111.55391,40.12378],[-111.54387,40.09695],[-111.49066,39.95444],[-111.43708,39.81065],[-111.43708,39.67221],[-111.43708,39.52312],[-111.45935,39.4773],[-111.53071,39.33027],[-111.60188,39.18331],[-111.61817,39.1353],[-111.66769,38.98921],[-111.7166,38.8446],[-111.76667,38.69624],[-111.75568,38.54387],[-111.73145,38.5137]]]}}]}